start=new Date('2023-06-10T00:00:00.000Z').valueOf();
sats=[{"SITE":"AFETR","GP_ID":"233583444","ARG_OF_PERICENTER":"271.6024","MEAN_MOTION_DDOT":"0.0000000000000","FILE":"3929125","BSTAR":"-0.03189400000000","REV_AT_EPOCH":"130","MEAN_MOTION":"15.32903112","LAUNCH_DATE":"2023-05-04","OBJECT_TYPE":"PAYLOAD","TIME_SYSTEM":"UTC","MEAN_ANOMALY":"293.6663","MEAN_ELEMENT_THEORY":"SGP4","TLE_LINE1":"1 56376U 23061C   23160.83334491 -.00958102  00000-0 -31894-1 0  9999","CLASSIFICATION_TYPE":"U","EPOCH":"2023-06-09T20:00:01.000224","RA_OF_ASC_NODE":"254.6398","REF_FRAME":"TEME","COUNTRY_CODE":"US","TLE_LINE2":"2 56376  42.9967 254.6398 0001297 271.6024 293.6663 15.32903112  1300","EPHEMERIS_TYPE":"0","INCLINATION":"42.9967","SEMIMAJOR_AXIS":"6845.293","RCS_SIZE":"LARGE","CENTER_NAME":"EARTH","PERIOD":"93.939","NORAD_CAT_ID":"56376","MEAN_MOTION_DOT":"-0.00958102","ECCENTRICITY":"0.00012970","PERIAPSIS":"466.270","ELEMENT_SET_NO":"999","OBJECT_ID":"2023-061C","DECAY_DATE":null,"OBJECT_NAME":"STARLINK-6188","APOAPSIS":"468.046"},{"LAUNCH_DATE":"2023-05-04","REV_AT_EPOCH":"130","MEAN_MOTION":"15.33529333","OBJECT_TYPE":"PAYLOAD","GP_ID":"233583507","SITE":"AFETR","MEAN_MOTION_DDOT":"0.0000000000000","FILE":"3929125","BSTAR":"-0.03136700000000","ARG_OF_PERICENTER":"276.4684","TLE_LINE2":"2 56377  42.9967 254.5913 0001304 276.4684 308.6648 15.33529333  1307","EPHEMERIS_TYPE":"0","REF_FRAME":"TEME","COUNTRY_CODE":"US","INCLINATION":"42.9967","TLE_LINE1":"1 56377U 23061D   23160.83334491 -.00948775  00000-0 -31367-1 0  9990","EPOCH":"2023-06-09T20:00:01.000224","CLASSIFICATION_TYPE":"U","TIME_SYSTEM":"UTC","MEAN_ANOMALY":"308.6648","MEAN_ELEMENT_THEORY":"SGP4","RA_OF_ASC_NODE":"254.5913","NORAD_CAT_ID":"56377","ECCENTRICITY":"0.00013040","MEAN_MOTION_DOT":"-0.00948775","SEMIMAJOR_AXIS":"6843.429","PERIOD":"93.901","CENTER_NAME":"EARTH","RCS_SIZE":"LARGE","OBJECT_NAME":"STARLINK-6189","APOAPSIS":"466.187","OBJECT_ID":"2023-061D","DECAY_DATE":null,"PERIAPSIS":"464.402","ELEMENT_SET_NO":"999"},{"NORAD_CAT_ID":"56378","ECCENTRICITY":"0.00014090","MEAN_MOTION_DOT":"-0.00950033","SEMIMAJOR_AXIS":"6840.387","PERIOD":"93.838","RCS_SIZE":"LARGE","CENTER_NAME":"EARTH","OBJECT_NAME":"STARLINK-6191","APOAPSIS":"463.216","DECAY_DATE":null,"OBJECT_ID":"2023-061E","PERIAPSIS":"461.288","ELEMENT_SET_NO":"999","LAUNCH_DATE":"2023-05-04","MEAN_MOTION":"15.34552567","REV_AT_EPOCH":"130","OBJECT_TYPE":"PAYLOAD","GP_ID":"233583120","SITE":"AFETR","BSTAR":"-0.03040000000000","FILE":"3929125","MEAN_MOTION_DDOT":"0.0000000000000","ARG_OF_PERICENTER":"276.7027","EPHEMERIS_TYPE":"0","TLE_LINE2":"2 56378  42.9966 254.5151 0001409 276.7027 340.0187 15.34552567  1305","COUNTRY_CODE":"US","REF_FRAME":"TEME","INCLINATION":"42.9966","TLE_LINE1":"1 56378U 23061E   23160.83334491 -.00950033  00000-0 -30400-1 0  9998","EPOCH":"2023-06-09T20:00:01.000224","CLASSIFICATION_TYPE":"U","MEAN_ANOMALY":"340.0187","MEAN_ELEMENT_THEORY":"SGP4","TIME_SYSTEM":"UTC","RA_OF_ASC_NODE":"254.5151"},{"SEMIMAJOR_AXIS":"6843.337","CENTER_NAME":"EARTH","RCS_SIZE":"LARGE","PERIOD":"93.899","NORAD_CAT_ID":"56379","ECCENTRICITY":"0.00014200","MEAN_MOTION_DOT":"-0.00979576","ELEMENT_SET_NO":"999","PERIAPSIS":"464.230","OBJECT_ID":"2023-061F","DECAY_DATE":null,"OBJECT_NAME":"STARLINK-6157","APOAPSIS":"466.174","SITE":"AFETR","GP_ID":"233583572","ARG_OF_PERICENTER":"276.2156","MEAN_MOTION_DDOT":"0.0000000000000","BSTAR":"-0.03199000000000","FILE":"3929125","REV_AT_EPOCH":"130","MEAN_MOTION":"15.33560378","LAUNCH_DATE":"2023-05-04","OBJECT_TYPE":"PAYLOAD","TIME_SYSTEM":"UTC","MEAN_ANOMALY":"55.7287","MEAN_ELEMENT_THEORY":"SGP4","TLE_LINE1":"1 56379U 23061F   23160.91667824 -.00979576  00000-0 -31990-1 0  9995","EPOCH":"2023-06-09T22:00:00.999936","CLASSIFICATION_TYPE":"U","RA_OF_ASC_NODE":"254.1006","REF_FRAME":"TEME","COUNTRY_CODE":"US","TLE_LINE2":"2 56379  42.9968 254.1006 0001420 276.2156  55.7287 15.33560378  1303","EPHEMERIS_TYPE":"0","INCLINATION":"42.9968"},{"TLE_LINE2":"2 56380  42.9968 254.0585 0001478 276.4975  72.5222 15.34106523  6029","EPHEMERIS_TYPE":"0","REF_FRAME":"TEME","COUNTRY_CODE":"US","INCLINATION":"42.9968","EPOCH":"2023-06-09T22:00:00.999936","TLE_LINE1":"1 56380U 23061G   23160.91667824 -.00975112  00000-0 -31282-1 0  9993","CLASSIFICATION_TYPE":"U","TIME_SYSTEM":"UTC","MEAN_ELEMENT_THEORY":"SGP4","MEAN_ANOMALY":"72.5222","RA_OF_ASC_NODE":"254.0585","LAUNCH_DATE":"2023-05-04","REV_AT_EPOCH":"602","MEAN_MOTION":"15.34106523","OBJECT_TYPE":"PAYLOAD","GP_ID":"233553025","SITE":"AFETR","MEAN_MOTION_DDOT":"0.0000000000000","BSTAR":"-0.03128200000000","FILE":"3928979","ARG_OF_PERICENTER":"276.4975","OBJECT_NAME":"STARLINK-6161","APOAPSIS":"464.589","OBJECT_ID":"2023-061G","DECAY_DATE":null,"ELEMENT_SET_NO":"999","PERIAPSIS":"462.566","NORAD_CAT_ID":"56380","MEAN_MOTION_DOT":"-0.00975112","ECCENTRICITY":"0.00014780","SEMIMAJOR_AXIS":"6841.713","PERIOD":"93.866","RCS_SIZE":"LARGE","CENTER_NAME":"EARTH"},{"REV_AT_EPOCH":"602","MEAN_MOTION":"15.33865693","LAUNCH_DATE":"2023-05-04","OBJECT_TYPE":"PAYLOAD","SITE":"AFETR","GP_ID":"233553023","ARG_OF_PERICENTER":"274.4622","MEAN_MOTION_DDOT":"0.0000000000000","FILE":"3928979","BSTAR":"-0.03148400000000","REF_FRAME":"TEME","COUNTRY_CODE":"US","TLE_LINE2":"2 56381  42.9968 254.0766 0001445 274.4622  67.0754 15.33865693  6020","EPHEMERIS_TYPE":"0","INCLINATION":"42.9968","TIME_SYSTEM":"UTC","MEAN_ELEMENT_THEORY":"SGP4","MEAN_ANOMALY":"67.0754","TLE_LINE1":"1 56381U 23061H   23160.91667824 -.00973970  00000-0 -31484-1 0  9998","EPOCH":"2023-06-09T22:00:00.999936","CLASSIFICATION_TYPE":"U","RA_OF_ASC_NODE":"254.0766","NORAD_CAT_ID":"56381","ECCENTRICITY":"0.00014450","MEAN_MOTION_DOT":"-0.00973970","SEMIMAJOR_AXIS":"6842.429","CENTER_NAME":"EARTH","RCS_SIZE":"LARGE","PERIOD":"93.880","OBJECT_NAME":"STARLINK-6159","APOAPSIS":"465.283","ELEMENT_SET_NO":"999","PERIAPSIS":"463.305","OBJECT_ID":"2023-061H","DECAY_DATE":null},{"EPHEMERIS_TYPE":"0","TLE_LINE2":"2 56382  42.9968 253.9962 0001482 277.6948  96.9006 15.34970078  6020","COUNTRY_CODE":"US","REF_FRAME":"TEME","INCLINATION":"42.9968","EPOCH":"2023-06-09T22:00:00.999936","TLE_LINE1":"1 56382U 23061J   23160.91667824 -.00961409  00000-0 -30387-1 0  9994","CLASSIFICATION_TYPE":"U","MEAN_ANOMALY":"96.9006","MEAN_ELEMENT_THEORY":"SGP4","TIME_SYSTEM":"UTC","RA_OF_ASC_NODE":"253.9962","LAUNCH_DATE":"2023-05-04","MEAN_MOTION":"15.34970078","REV_AT_EPOCH":"602","OBJECT_TYPE":"PAYLOAD","GP_ID":"233553024","SITE":"AFETR","FILE":"3928979","BSTAR":"-0.03038700000000","MEAN_MOTION_DDOT":"0.0000000000000","ARG_OF_PERICENTER":"277.6948","OBJECT_NAME":"STARLINK-6160","APOAPSIS":"462.025","DECAY_DATE":null,"OBJECT_ID":"2023-061J","ELEMENT_SET_NO":"999","PERIAPSIS":"459.998","NORAD_CAT_ID":"56382","ECCENTRICITY":"0.00014820","MEAN_MOTION_DOT":"-0.00961409","SEMIMAJOR_AXIS":"6839.146","PERIOD":"93.813","CENTER_NAME":"EARTH","RCS_SIZE":"LARGE"},{"INCLINATION":"42.9969","TLE_LINE2":"2 56383  42.9969 254.0165 0001516 277.6336  88.5798 15.34680009  6025","EPHEMERIS_TYPE":"0","REF_FRAME":"TEME","COUNTRY_CODE":"US","RA_OF_ASC_NODE":"254.0165","TLE_LINE1":"1 56383U 23061K   23160.91667824 -.00959730  00000-0 -30613-1 0  9991","CLASSIFICATION_TYPE":"U","EPOCH":"2023-06-09T22:00:00.999936","TIME_SYSTEM":"UTC","MEAN_ANOMALY":"88.5798","MEAN_ELEMENT_THEORY":"SGP4","OBJECT_TYPE":"PAYLOAD","LAUNCH_DATE":"2023-05-04","REV_AT_EPOCH":"602","MEAN_MOTION":"15.34680009","MEAN_MOTION_DDOT":"0.0000000000000","FILE":"3928980","BSTAR":"-0.03061300000000","ARG_OF_PERICENTER":"277.6336","GP_ID":"233553035","SITE":"AFETR","APOAPSIS":"462.910","OBJECT_NAME":"STARLINK-6166","OBJECT_ID":"2023-061K","DECAY_DATE":null,"PERIAPSIS":"460.836","ELEMENT_SET_NO":"999","MEAN_MOTION_DOT":"-0.00959730","ECCENTRICITY":"0.00015160","NORAD_CAT_ID":"56383","PERIOD":"93.831","RCS_SIZE":"LARGE","CENTER_NAME":"EARTH","SEMIMAJOR_AXIS":"6840.008"},{"PERIOD":"93.766","RCS_SIZE":"LARGE","CENTER_NAME":"EARTH","SEMIMAJOR_AXIS":"6836.877","MEAN_MOTION_DOT":"-0.00959640","ECCENTRICITY":"0.00014790","NORAD_CAT_ID":"56384","DECAY_DATE":null,"OBJECT_ID":"2023-061L","ELEMENT_SET_NO":"999","PERIAPSIS":"457.731","APOAPSIS":"459.753","OBJECT_NAME":"STARLINK-6153","BSTAR":"-0.02958700000000","FILE":"3928980","MEAN_MOTION_DDOT":"0.0000000000000","ARG_OF_PERICENTER":"276.7589","GP_ID":"233553533","SITE":"AFETR","OBJECT_TYPE":"PAYLOAD","LAUNCH_DATE":"2023-05-04","MEAN_MOTION":"15.35734495","REV_AT_EPOCH":"602","RA_OF_ASC_NODE":"253.9438","TLE_LINE1":"1 56384U 23061L   23160.91667824 -.00959640  00000-0 -29587-1 0  9990","CLASSIFICATION_TYPE":"U","EPOCH":"2023-06-09T22:00:00.999936","MEAN_ANOMALY":"119.6223","MEAN_ELEMENT_THEORY":"SGP4","TIME_SYSTEM":"UTC","INCLINATION":"42.9967","EPHEMERIS_TYPE":"0","TLE_LINE2":"2 56384  42.9967 253.9438 0001479 276.7589 119.6223 15.35734495  6022","COUNTRY_CODE":"US","REF_FRAME":"TEME"},{"ARG_OF_PERICENTER":"276.6108","BSTAR":"-0.03007800000000","FILE":"3928980","MEAN_MOTION_DDOT":"0.0000000000000","SITE":"AFETR","GP_ID":"233553029","OBJECT_TYPE":"PAYLOAD","MEAN_MOTION":"15.35187696","REV_AT_EPOCH":"602","LAUNCH_DATE":"2023-05-04","RA_OF_ASC_NODE":"253.9813","MEAN_ELEMENT_THEORY":"SGP4","MEAN_ANOMALY":"104.4615","TIME_SYSTEM":"UTC","CLASSIFICATION_TYPE":"U","TLE_LINE1":"1 56385U 23061M   23160.91667824 -.00958584  00000-0 -30078-1 0  9994","EPOCH":"2023-06-09T22:00:00.999936","INCLINATION":"42.9969","COUNTRY_CODE":"US","REF_FRAME":"TEME","EPHEMERIS_TYPE":"0","TLE_LINE2":"2 56385  42.9969 253.9813 0001456 276.6108 104.4615 15.35187696  6025","RCS_SIZE":"LARGE","CENTER_NAME":"EARTH","PERIOD":"93.800","SEMIMAJOR_AXIS":"6838.500","ECCENTRICITY":"0.00014560","MEAN_MOTION_DOT":"-0.00958584","NORAD_CAT_ID":"56385","PERIAPSIS":"459.369","ELEMENT_SET_NO":"999","DECAY_DATE":null,"OBJECT_ID":"2023-061M","APOAPSIS":"461.361","OBJECT_NAME":"STARLINK-6173"}];
